IRIDIUM 39              
1 25042U 97069D   25333.82928718  .00000796  00000+0  20216-3 0  9990
2 25042  86.3907 140.1688 0019700 110.9145 249.4171 14.49471945472957
IRIDIUM 38              
1 25043U 97069E   25333.82896920  .00000468  00000+0  14746-3 0  9997
2 25043  86.3971 163.5367 0000243  29.2336 330.8876 14.38293905469766
IRIDIUM 42              
1 25077U 97077A   25333.83015750  .00000434  00000+0  14136-3 0  9994
2 25077  86.3982 169.9062 0001368  73.7655 286.3692 14.36514118464973
IRIDIUM 44              
1 25078U 97077B   25333.75407564  .00000441  00000+0  13253-3 0  9991
2 25078  86.3962 151.4361 0002156 141.8492 218.2860 14.40414144467531
IRIDIUM 45              
1 25104U 97082A   25333.73153113  .00025447  00000+0  73491-3 0  9996
2 25104  86.3542 327.0855 0103628  69.0206 292.2093 15.30228092477282
IRIDIUM 24              
1 25105U 97082B   25333.65118382  .00000499  00000+0  14505-3 0  9998
2 25105  86.3922  10.1062 0009334 246.3185 113.7036 14.42308263467060
IRIDIUM 51              
1 25262U 98018A   25333.75543904  .00092770  00000+0  11077-2 0  9998
2 25262  86.3743 332.8969 0053676 330.3537  29.4687 15.58930260472627
IRIDIUM 57              
1 25273U 98019B   25333.81167159  .00000411  00000+0  13485-3 0  9999
2 25273  86.3959  75.8115 0001988  95.8651 264.2772 14.36035256448559
